FTCA31 KWBC 122254
TAF
TAF MWCB 122300Z 1218/1318 CNL=
TAF MWCR 122300Z 1300/1324 03015G25KT 9999 SCT020 PROB40
      TEMPO 1303/1312 03020G30KT PROB30 1322/1324 SHRA=
